STARLINK-30495          
1 57968U 23151E   26068.14863451  .00001291  00000+0  57761-4 0  9993
2 57968  43.0042 339.0612 0001337 263.7152  96.3547 15.26761318135681
FLOCK 4G-36             
1 62675U 25009BU  26068.70726311  .00013573  00000+0  51122-3 0  9993
2 62675  97.4053 151.0513 0003474 324.2456  35.8550 15.27209548 63701
